{
    "links": {
        "self": "http://www.neowsapp.com/rest/v1/neo/3684343?api_key=iIulBulltgU6a56xZRHN4H3l9WmuAYTsLGpBGhQ2"
    },
    "id": "3684343",
    "neo_reference_id": "3684343",
    "name": "(2014 QJ362)",
    "designation": "2014 QJ362",
    "nasa_jpl_url": "http://ssd.jpl.nasa.gov/sbdb.cgi?sstr=3684343",
    "absolute_magnitude_h": 22.8,
    "estimated_diameter": {
        "kilometers": {
            "estimated_diameter_min": 0.0732073989,
            "estimated_diameter_max": 0.1636967205
        },
        "meters": {
            "estimated_diameter_min": 73.2073989347,
            "estimated_diameter_max": 163.696720474
        },
        "miles": {
            "estimated_diameter_min": 0.0454889547,
            "estimated_diameter_max": 0.1017163949
        },
        "feet": {
            "estimated_diameter_min": 240.181762721,
            "estimated_diameter_max": 537.0627483999
        }
    },
    "is_potentially_hazardous_asteroid": false,
    "close_approach_data": [
        {
            "close_approach_date": "2014-08-13",
            "close_approach_date_full": "2014-Aug-13 20:51",
            "epoch_date_close_approach": 1407963060000,
            "relative_velocity": {
                "kilometers_per_second": "7.8118985493",
                "kilometers_per_hour": "28122.8347775193",
                "miles_per_hour": "17474.4358649536"
            },
            "miss_distance": {
                "astronomical": "0.2391539232",
                "lunar": "93.0308761248",
                "kilometers": "35776917.512863584",
                "miles": "22230745.6891180992"
            },
            "orbiting_body": "Earth"
        },
        {
            "close_approach_date": "2015-01-24",
            "close_approach_date_full": "2015-Jan-24 02:38",
            "epoch_date_close_approach": 1422067080000,
            "relative_velocity": {
                "kilometers_per_second": "8.4534887393",
                "kilometers_per_hour": "30432.5594616325",
                "miles_per_hour": "18909.6089610349"
            },
            "miss_distance": {
                "astronomical": "0.0833877241",
                "lunar": "32.4378246749",
                "kilometers": "12474625.909507667",
                "miles": "7751373.1042211246"
            },
            "orbiting_body": "Earth"
        }
    ],
    "orbital_data": {
        "orbit_id": "3",
        "orbit_determination_date": "2017-04-06 08:39:06",
        "first_observation_date": "2014-08-18",
        "last_observation_date": "2014-08-29",
        "data_arc_in_days": 11,
        "observations_used": 13,
        "orbit_uncertainty": "8",
        "minimum_orbit_intersection": ".0820899",
        "jupiter_tisserand_invariant": "5.607",
        "epoch_osculation": "2456892.5",
        "eccentricity": ".1943463414527566",
        "semi_major_axis": "1.100336633869665",
        "inclination": "13.22581360278177",
        "ascending_node_longitude": "301.3752006182151",
        "orbital_period": "421.5865872113342",
        "perihelion_distance": ".8864902347106538",
        "perihelion_argument": "155.2767379596113",
        "aphelion_distance": "1.314183033028675",
        "perihelion_time": "2457024.563620666939",
        "mean_anomaly": "247.2286147560345",
        "mean_motion": ".8539171096056197",
        "equinox": "J2000",
        "orbit_class": {
            "orbit_class_type": "APO",
            "orbit_class_description": "Near-Earth asteroid orbits which cross the Earth’s orbit similar to that of 1862 Apollo",
            "orbit_class_range": "a (semi-major axis) > 1.0 AU; q (perihelion) < 1.017 AU"
        }
    },
    "is_sentry_object": false
}